NORAD_CAT_ID,OBJECT_NAME,OBJECT_TYPE,EPOCH,MEAN_MOTION,ECCENTRICITY,INCLINATION,RA_OF_ASC_NODE,ARG_OF_PERICENTER,MEAN_ANOMALY,BSTAR,MEAN_MOTION_DOT,MEAN_MOTION_DDOT,TLE_LINE0,TLE_LINE1,TLE_LINE2,SEMIMAJOR_AXIS,PERIOD,APOGEE,PERIGEE,DECAYED
52360.0,STARLINK-3824,PAYLOAD,2022-05-17 12:00:00,15.73188229,0.0001085,53.2135,349.0754,109.8168,309.1775,-0.00018358,-0.0002628999999999,0.0,0 STARLINK-3824,1 52360U 22045AF  22137.50001157 -.00026290  00000-0 -18358-3 0  9992,2 52360  53.2135 349.0754 0001085 109.8168 309.1775 15.73188229  5313,6727.929,91.534,350.524,349.064,0.0
52360.0,STARLINK-3824,PAYLOAD,2022-05-17 14:00:01,15.73190842,0.0001188,53.2137,348.6632,109.6879,61.5975,-0.00028632,-0.00040593,0.0,0 STARLINK-3824,1 52360U 22045AF  22137.58335648 -.00040593  00000-0 -28632-3 0  9993,2 52360  53.2137 348.6632 0001188 109.6879  61.5975 15.73190842  1306,6727.920999999999,91.534,350.586,348.987,0.0
52360.0,STARLINK-3824,PAYLOAD,2022-05-17 22:00:01,15.73135525,0.0001267,53.2137,347.0157,95.1098,165.09,0.00053589,0.00075055,0.0,0 STARLINK-3824,1 52360U 22045AF  22137.91668981  .00075055  00000-0  53589-3 0  9997,2 52360  53.2137 347.0157 0001267  95.1098 165.0900 15.73135525  1306,6728.079000000002,91.537,350.796,349.092,0.0
52360.0,STARLINK-3824,PAYLOAD,2022-05-18 06:00:00,15.73234846,0.0001244,53.2138,345.3649,99.0095,250.0221,-0.00043698,-0.00061591,0.0,0 STARLINK-3824,1 52360U 22045AF  22138.25001157 -.00061591  00000-0 -43698-3 0  9993,2 52360  53.2138 345.3649 0001244  99.0095 250.0221 15.73234846  5423,6727.795999999999,91.531,350.49800000000016,348.824,0.0
52360.0,STARLINK-3824,PAYLOAD,2022-05-18 12:00:00,15.73161611,0.0001364,53.214,344.1263,103.1596,222.5877,0.00083114,0.00117475,0.0,0 STARLINK-3824,1 52360U 22045AF  22138.50001157  .00117475  00000-0  83114-3 0  9999,2 52360  53.2140 344.1263 0001364 103.1596 222.5877 15.73161611  5465,6728.005,91.535,350.787,348.952,0.0
52360.0,STARLINK-3824,PAYLOAD,2022-05-18 14:00:01,15.73210261,0.0001411,53.2142,343.7142,102.9946,334.9685,0.00032245,0.00044896,0.0,0 STARLINK-3824,1 52360U 22045AF  22138.58334491  .00044896  00000-0  32245-3 0  9992,2 52360  53.2142 343.7142 0001411 102.9946 334.9685 15.73210261  1307,6727.866,91.533,350.68,348.782,0.0
52360.0,STARLINK-3824,PAYLOAD,2022-05-18 20:00:01,15.73263321,0.0001261,53.214,342.4787,93.6265,321.0512,-0.0008397,-0.00117155,0.0,0 STARLINK-3824,1 52360U 22045AF  22138.83334491 -.00117155  00000-0 -83970-3 0  9992,2 52360  53.2140 342.4787 0001261  93.6265 321.0512 15.73263321  5528,6727.715,91.529,350.42800000000005,348.731,0.0
52360.0,STARLINK-3824,PAYLOAD,2022-05-18 22:00:00,15.73226779,0.000125,53.2141,342.0665,90.5053,76.4247,-0.00053446,-0.00075047,0.0,0 STARLINK-3824,1 52360U 22045AF  22138.91667824 -.00075047  00000-0 -53446-3 0  9998,2 52360  53.2141 342.0665 0001250  90.5053  76.4247 15.73226779  1303,6727.819,91.532,350.525,348.843,0.0
52360.0,STARLINK-3824,PAYLOAD,2022-05-19 06:00:00,15.73197883,0.0001129,53.2135,340.4155,99.4546,156.4011,-0.00043246,-0.00060868,0.0,0 STARLINK-3824,1 52360U 22045AF  22139.25001157 -.00060868  00000-0 -43246-3 0  9999,2 52360  53.2135 340.4155 0001129  99.4546 156.4011 15.73197883  5587,6727.901,91.533,350.526,349.00699999999995,0.0
52360.0,STARLINK-3824,PAYLOAD,2022-05-19 14:00:01,15.73139452,0.000107,53.2139,338.7653,108.1849,236.6289,0.00049894,0.00069804,0.0,0 STARLINK-3824,1 52360U 22045AF  22139.58335648  .00069804  00000-0  49894-3 0  9992,2 52360  53.2139 338.7653 0001070 108.1849 236.6289 15.73139452  1305,6728.068,91.537,350.653,349.213,0.0
52360.0,STARLINK-3824,PAYLOAD,2022-05-19 22:00:00,15.73220105,9.73e-05,53.214,337.1179,91.6199,342.0468,9.1322e-05,0.00012226,0.0,0 STARLINK-3824,1 52360U 22045AF  22139.91667824  .00012226  00000-0  91322-4 0  9993,2 52360  53.2140 337.1179 0000973  91.6199 342.0468 15.73220105  5691,6727.8380000000025,91.532,350.357,349.048,0.0
52360.0,STARLINK-3824,PAYLOAD,2022-05-20 14:00:01,15.73206109,0.0001081,53.2177,333.8161,97.5146,153.8644,-1.4324e-05,-2.63e-05,0.0,0 STARLINK-3824,1 52360U 22045AF  22140.58334491 -.00002630  00000-0 -14324-4 0  9996,2 52360  53.2177 333.8161 0001081  97.5146 153.8644 15.73206109  5796,6727.878000000002,91.533,350.47,349.015,0.0
52360.0,STARLINK-3824,PAYLOAD,2022-05-20 22:00:00,15.73202829,0.0001091,53.2143,332.1688,82.2121,258.3457,0.00031823,0.00044282,0.0,0 STARLINK-3824,1 52360U 22045AF  22140.91667824  .00044282  00000-0  31823-3 0  9991,2 52360  53.2143 332.1688 0001091  82.2121 258.3457 15.73202829  5844,6727.887,91.533,350.486,349.01800000000014,0.0
52360.0,STARLINK-3824,PAYLOAD,2022-05-21 06:00:00,15.73211206,0.000109,53.2139,330.5175,93.0016,336.5099,2.637e-06,-2.49e-06,0.0,0 STARLINK-3824,1 52360U 22045AF  22141.25001157 -.00000249  00000-0  26370-5 0  9999,2 52360  53.2139 330.5175 0001090  93.0016 336.5099 15.73211206  1301,6727.863,91.533,350.462,348.995,0.0
52360.0,STARLINK-3824,PAYLOAD,2022-05-21 14:00:01,15.73221255,0.0001128,53.2141,328.8678,96.9899,61.51600000000001,-0.00020414,-0.00029196,0.0,0 STARLINK-3824,1 52360U 22045AF  22141.58335648 -.00029196  00000-0 -20414-3 0  9994,2 52360  53.2141 328.8678 0001128  96.9899  61.5160 15.73221255  5959,6727.835,91.532,350.458,348.941,0.0
52360.0,STARLINK-3824,PAYLOAD,2022-05-21 22:00:00,15.73163467,0.0001165,53.214,327.2203,79.8331,167.5632,0.00053848,0.00075515,0.0,0 STARLINK-3824,1 52360U 22045AF  22141.91667824  .00075515  00000-0  53848-3 0  9996,2 52360  53.2140 327.2203 0001165  79.8331 167.5632 15.73163467  1303,6727.999,91.535,350.648,349.081,0.0
52360.0,STARLINK-3824,PAYLOAD,2022-05-22 14:00:01,15.73209045,0.0001078,53.2144,323.9192,89.152,336.0554,-0.00048941,-0.00068771,0.0,0 STARLINK-3824,1 52360U 22045AF  22142.58334491 -.00068771  00000-0 -48941-3 0  9997,2 52360  53.2144 323.9192 0001078  89.1520 336.0554 15.73209045  6117,6727.869000000002,91.533,350.46,349.009,0.0
52360.0,STARLINK-3824,PAYLOAD,2022-05-22 22:00:01,15.73124272,8.609999999999999e-05,53.2141,322.2714,66.8305,87.3916,0.00092132,0.0013027999999999,0.0,0 STARLINK-3824,1 52360U 22045AF  22142.91668981  .00130280  00000-0  92132-3 0  9992,2 52360  53.2141 322.2714 0000861  66.8305  87.3916 15.73124272  6169,6728.111,91.538,350.555,349.397,0.0
52360.0,STARLINK-3824,PAYLOAD,2022-05-23 04:00:00,15.7322385,8.52e-05,53.2136,321.033,73.6514,57.1482,-0.00015834,-0.00022803,0.0,0 STARLINK-3824,1 52360U 22045AF  22143.16667824 -.00022803  00000-0 -15834-3 0  9992,2 52360  53.2136 321.0330 0000852  73.6514  57.1482 15.73223850  6202,6727.8269999999975,91.532,350.265,349.119,0.0
52360.0,STARLINK-3824,PAYLOAD,2022-05-23 14:00:01,15.73222702,0.0001023,53.2138,318.9707,83.2274,248.7421,-0.00039336,-0.00055514,0.0,0 STARLINK-3824,1 52360U 22045AF  22143.58334491 -.00055514  00000-0 -39336-3 0  9997,2 52360  53.2138 318.9707 0001023  83.2274 248.7421 15.73222702  1300,6727.83,91.532,350.384,349.00699999999995,0.0
52360.0,STARLINK-3824,PAYLOAD,2022-05-23 22:00:01,15.73147725,0.0001,53.2136,317.323,67.2647,353.6964,0.00034333,0.0004773,0.0,0 STARLINK-3824,1 52360U 22045AF  22143.91668981  .00047730  00000-0  34333-3 0  9999,2 52360  53.2136 317.3230 0001000  67.2647 353.6964 15.73147725  1302,6728.044,91.536,350.582,349.236,0.0
52360.0,STARLINK-3824,PAYLOAD,2022-05-24 04:00:00,15.73244369,0.0001197,53.2143,316.0841,72.9685,324.6679,-0.00044199,-0.00062309,0.0,0 STARLINK-3824,1 52360U 22045AF  22144.16667824 -.00062309  00000-0 -44199-3 0  9994,2 52360  53.2143 316.0841 0001197  72.9685 324.6679 15.73244369  6359,6727.769,91.531,350.439,348.82800000000015,0.0
52360.0,STARLINK-3824,PAYLOAD,2022-05-24 14:00:01,15.73231358,0.0001293,53.214,314.0219,76.59899999999998,162.2,-0.00042254,-0.00059581,0.0,0 STARLINK-3824,1 52360U 22045AF  22144.58334491 -.00059581  00000-0 -42254-3 0  9999,2 52360  53.2140 314.0219 0001293  76.5990 162.2000 15.73231358  1307,6727.806,91.531,350.541,348.801,0.0
52360.0,STARLINK-3824,PAYLOAD,2022-05-24 22:00:00,15.73212838,0.0001299,53.2135,312.3739,60.5539,267.2068,1.0501e-05,8.55e-06,0.0,0 STARLINK-3824,1 52360U 22045AF  22144.91667824  .00000855  00000-0  10501-4 0  9994,2 52360  53.2135 312.3739 0001299  60.5539 267.2068 15.73212838  6472,6727.859,91.532,350.598,348.85,0.0
52360.0,STARLINK-3824,PAYLOAD,2022-05-25 12:00:00,15.73183958,0.0001173,53.2135,309.485,71.8257,321.5697,0.00026317,0.00036449,0.0,0 STARLINK-3824,1 52360U 22045AF  22145.50001157  .00036449  00000-0  26317-3 0  9990,2 52360  53.2135 309.4850 0001173  71.8257 321.5697 15.73183958  6568,6727.941,91.534,350.595,349.017,0.0
52360.0,STARLINK-3824,PAYLOAD,2022-05-25 14:00:01,15.73211993,0.0001182,53.2134,309.0731,67.8675,77.7509,-0.00016179,-0.00023274,0.0,0 STARLINK-3824,1 52360U 22045AF  22145.58334491 -.00023274  00000-0 -16179-3 0  9997,2 52360  53.2134 309.0731 0001182  67.8675  77.7509 15.73211993  1300,6727.861,91.532,350.521,348.931,0.0
52360.0,STARLINK-3824,PAYLOAD,2022-05-25 22:00:00,15.73147503,0.0001289,53.2131,307.425,55.0189,179.5455,0.0007899,0.00111467,0.0,0 STARLINK-3824,1 52360U 22045AF  22145.91667824  .00111467  00000-0  78990-3 0  9992,2 52360  53.2131 307.4250 0001289  55.0189 179.5455 15.73147503  1308,6728.045,91.536,350.777,349.043,0.0
52360.0,STARLINK-3824,PAYLOAD,2022-05-26 06:00:00,15.73212519,0.0001076,53.2134,305.7731,62.4901,260.9767,-0.00015438,-0.0002224,0.0,0 STARLINK-3824,1 52360U 22045AF  22146.25001157 -.00022240  00000-0 -15438-3 0  9991,2 52360  53.2134 305.7731 0001076  62.4901 260.9767 15.73212519  6681,6727.859,91.532,350.4480000000001,349.001,0.0
52360.0,STARLINK-3824,PAYLOAD,2022-05-26 14:00:01,15.7323636,0.0001028,53.2136,304.1241,51.1899,1.2021,-0.00035758,-0.00050579,0.0,0 STARLINK-3824,1 52360U 22045AF  22146.58334491 -.00050579  00000-0 -35758-3 0  9990,2 52360  53.2136 304.1241 0001028  51.1899   1.2021 15.73236360  1303,6727.792,91.531,350.348,348.965,0.0
